ECHOSTAR 19             
1 41893U 16079A   18078.77734356 -.00000147  00000-0  00000-0 0  9997
2 41893   0.0239 181.8689 0001246 169.9711   8.1580  1.00270534  4535
JCSAT-15                
1 41903U 16082A   18079.20065204 -.00000361  00000-0  00000-0 0  9999
2 41903   0.0202 242.2434 0001306  44.1700  73.5649  1.00270821  4593
STAR ONE D1             
1 41904U 16082B   18078.74107609 -.00000220  00000-0  00000-0 0  9998
2 41904   0.0297 112.0673 0002121 230.6775  17.2401  1.00269994  4586
TJS-2                   
1 41911U 17001A   18079.97009749 -.00000353  00000-0  00000-0 0  9997
2 41911   0.0894 276.5774 0000655 160.8978 197.7092  1.00275047  4546
HISPASAT 36W-1          
1 41942U 17006A   18079.60528685 -.00000254  00000-0  00000-0 0  9991
2 41942   0.0073 180.4519 0000995 175.0458   4.5014  1.00272513  4057
TELKOM 3S               
1 41944U 17007A   18079.17871977 -.00000372  00000-0  00000+0 0  9991
2 41944   0.0149 123.6695 0002418 236.7035 359.6198  1.00271105  4025
INTELSAT 32E (IS-32E)   
1 41945U 17007B   18079.62521758 -.00000279  00000-0  00000-0 0  9998
2 41945   0.0112 135.9498 0000313 119.8944 104.1451  1.00270128  4057
ECHOSTAR 23             
1 42070U 17014A   18079.63001411 -.00000283  00000-0  00000-0 0  9991
2 42070   0.0223 178.7660 0001953 177.8375   3.3952  1.00269898  3764
SES-10                  
1 42432U 17017A   18079.69095452 -.00000282  00000-0  00000+0 0  9998
2 42432   0.0136 173.2237 0002678 192.0195 354.7596  1.00269339  3591
CHINASAT 16 (SJ-13)     
1 42662U 17018A   18079.19930059 -.00000362  00000-0  00000+0 0  9999
2 42662   0.0563 100.9539 0005179 154.3864 104.5952  1.00273265  3551
KOREASAT 7              
1 42691U 17023A   18079.18457834 -.00000372  00000-0  00000-0 0  9993
2 42691   0.0208 107.2582 0001377 249.3953   3.3382  1.00272344  3197
SGDC                    
1 42692U 17023B   18079.71295692 -.00000259  00000-0  00000+0 0  9998
2 42692   0.0329  85.5776 0002143 273.5832   0.8317  1.00271978  3262
GSAT-9                  
1 42695U 17024A   18079.23634705 -.00000296  00000-0  00000+0 0  9992
2 42695   0.0724 283.0814 0003897  96.3413 340.5846  1.00274409  3246
INMARSAT 5-F4           
1 42698U 17025A   18080.66924381 -.00000274  00000-0  00000+0 0  9993
2 42698   0.0527 300.8909 0002399  18.3365 210.8418  0.99675503  3093
SES-15                  
1 42709U 17026A   18079.86339295  .00000050  00000-0  00000+0 0  9992
2 42709   0.0095 178.4649 0000453 169.7744  11.7526  1.00271683  3998
VIASAT-2                
1 42740U 17029A   18079.69919235 -.00000275  00000-0  00000+0 0  9999
2 42740   0.0171 155.3466 0000898 208.8347 355.8124  1.00272583  3004
EUTELSAT 172B           
1 42741U 17029B   18079.02913784 -.00000015  00000-0  00000+0 0  9992
2 42741   0.0232 190.6601 0000424  45.7752 123.5606  1.00270775  3511
GSAT-19                 
1 42747U 17031A   18079.37301067  .00000115  00000-0  00000-0 0  9995
2 42747   0.0208 130.7487 0004039 265.5475 323.7239  1.00270502  2947
ECHOSTAR 21             
1 42749U 17032A   18079.36037813  .00000049  00000-0  00000-0 0  9998
2 42749   7.0301 317.9062 0002555  36.5008 323.4117  1.00274290  2925
CHINASAT 9A (ZX 9A)     
1 42763U 17035A   18080.27985998 -.00000323  00000-0  00000+0 0  9990
2 42763   0.0587 119.9543 0002544 290.4427 330.5066  1.00270189  3474
BULGARIASAT-1           
1 42801U 17038A   18079.50030514  .00000001  00000-0  00000-0 0  9998
2 42801   0.0222 188.1045 0002455 181.5142 350.3859  1.00270814  2657
HELLAS-SAT 3            
1 42814U 17040A   18079.39764139  .00000143  00000-0  00000-0 0  9996
2 42814   0.0655  58.2854 0004716 307.1419 354.5706  1.00271216  2701
GSAT-17                 
1 42815U 17040B   18079.24650502 -.00000267  00000-0  00000+0 0  9996
2 42815   0.0410 107.6184 0005058 181.7340  70.5859  1.00272649  2687
INTELSAT 35E (IS-35E)   
1 42818U 17041A   18079.60115123 -.00000248  00000-0  00000-0 0  9995
2 42818   0.0346 251.0382 0001957 110.0082 358.9468  1.00272112  2688
COSMOS 2520             
1 42907U 17046A   18080.22002600  .00000126  00000-0  00000+0 0  9997
2 42907   0.0012 216.1276 0001522 271.6268 175.1294  1.00273533  2201
TDRS 13                 
1 42915U 17047A   18079.84263233  .00000110  00000-0  00000+0 0  9997
2 42915   6.7561 331.7749 0011674 354.8238   5.0849  1.00271400  2197
QZS-3                   
1 42917U 17048A   18079.15374591 -.00000358  00000-0  00000+0 0  9999
2 42917   0.0500 153.6316 0001183 214.0144 352.3484  1.00269226  2182
AMAZONAS 5              
1 42934U 17053A   18079.67459111 -.00000292  00000-0  00000+0 0  9990
2 42934   0.0163 261.3630 0005019  81.3930  17.2270  1.00268388  1943
ASIASAT 9               
1 42942U 17057A   18079.78729837 -.00000370  00000-0  00000-0 0  9998
2 42942   0.0018 182.1602 0002059 167.6499 233.9739  1.00270037  1759
INTELSAT 37E (IS-37E)   
1 42950U 17059A   18080.18104895 -.00000151  00000-0  00000+0 0  9992
2 42950   0.0059 184.2317 0002176 149.2141 252.3516  1.00271588  1861
BSAT-4A                 
1 42951U 17059B   18080.59338968 -.00000361  00000-0  00000+0 0  9991
2 42951   0.0624  18.3639 0005076   8.2818 115.8625  1.00266959  1771
SES-11 (ECHOSTAR 105)   
1 42967U 17063A   18078.79910322 -.00000099  00000-0  00000+0 0  9990
2 42967   0.0303 228.6150 0001892 156.2049 335.1814  1.00271913  1625
KOREASAT 5A             
1 42984U 17067A   18080.18941959 -.00000369  00000-0  00000+0 0  9999
2 42984   0.0152 143.6959 0001421 200.3779  15.9147  1.00271429  1453
ALCOMSAT 1              
1 43039U 17078A   18080.47962719 -.00000197  00000-0  00000+0 0  9991
2 43039   0.0299 313.5506 0002803  39.8783 333.3826  1.00271506  1118
